GLOBALSTAR M023         
1 25621U 99004A   26018.52729854 -.00000031  00000+0  40335-3 0  9999
2 25621  52.0103 117.7195 0009402 240.0378 133.1894 12.62514359242936
GLOBALSTAR M040         
1 25622U 99004B   26018.69463757 -.00000126  00000+0 -12622-3 0  9999
2 25622  51.9923 121.6812 0001720 131.7041  15.9304 12.62026562242468
GLOBALSTAR M036         
1 25623U 99004C   26018.79563042 -.00000047  00000+0  51681-3 0  9998
2 25623  51.9986  32.0121 0010808 104.2058  66.8779 11.86616916204570
GLOBALSTAR M038         
1 25624U 99004D   26018.91524798 -.00000100  00000+0 -43237-4 0  9998
2 25624  51.9952 170.2919 0002765 127.2432  42.0251 12.32539341228977
GLOBALSTAR M022         
1 25649U 99012A   26018.54833259 -.00000043  00000+0  52986-3 0  9993
2 25649  52.0047  65.4462 0002621 227.1841 290.0964 12.02508751202284
GLOBALSTAR M041         
1 25650U 99012B   26018.96737790 -.00000048  00000+0  48732-3 0  9993
2 25650  52.0042 312.3393 0001793  38.1557 321.9406 11.96683009204112
GLOBALSTAR M046         
1 25651U 99012C   26018.74703644 -.00000109  00000+0 -22593-3 0  9997
2 25651  52.0079   7.1723 0001879 330.1064 201.1713 12.09418830209749
GLOBALSTAR M037         
1 25652U 99012D   26018.91113353 -.00000065  00000+0  21755-3 0  9998
2 25652  51.9985 247.0905 0001555 336.5005  36.5527 12.62459442238521
